start=new Date('2022-12-04T00:00:00.000Z').valueOf();
sats=[{"GP_ID":"219479318","SITE":"AFETR","NORAD_CAT_ID":"47675","TLE_LINE1":"1 47675U 21012BH  22337.55377008  .00000575  00000-0  57518-4 0  9994","COUNTRY_CODE":"US","RCS_SIZE":"LARGE","CLASSIFICATION_TYPE":"U","DECAY_DATE":null,"ECCENTRICITY":"0.00014270","TLE_LINE2":"2 47675  53.0571   3.3242 0001427  70.9331 289.1813 15.06395823100581","FILE":"3680595","LAUNCH_DATE":"2021-02-16","BSTAR":"0.00005751800000","APOAPSIS":"548.215","REV_AT_EPOCH":"10058","PERIAPSIS":"546.238","MEAN_MOTION_DOT":"0.00000575","PERIOD":"95.592","REF_FRAME":"TEME","MEAN_MOTION":"15.06395823","OBJECT_NAME":"STARLINK-2078","SEMIMAJOR_AXIS":"6925.361","CENTER_NAME":"EARTH","OBJECT_ID":"2021-012BH","TIME_SYSTEM":"UTC","INCLINATION":"53.0571","RA_OF_ASC_NODE":"3.3242","MEAN_ELEMENT_THEORY":"SGP4","EPOCH":"2022-12-03T13:17:25.734912","OBJECT_TYPE":"PAYLOAD","MEAN_MOTION_DDOT":"0.0000000000000","MEAN_ANOMALY":"289.1813","ELEMENT_SET_NO":"999","EPHEMERIS_TYPE":"0","ARG_OF_PERICENTER":"70.9331"},{"MEAN_ANOMALY":"295.1307","ELEMENT_SET_NO":"999","EPHEMERIS_TYPE":"0","ARG_OF_PERICENTER":"64.9843","SEMIMAJOR_AXIS":"6925.344","CENTER_NAME":"EARTH","INCLINATION":"53.0552","TIME_SYSTEM":"UTC","OBJECT_ID":"2021-012BJ","RA_OF_ASC_NODE":"252.4461","MEAN_ELEMENT_THEORY":"SGP4","MEAN_MOTION_DDOT":"0.0000000000000","OBJECT_TYPE":"PAYLOAD","EPOCH":"2022-12-03T17:57:23.966784","PERIAPSIS":"546.135","MEAN_MOTION_DOT":"0.00000060","REF_FRAME":"TEME","PERIOD":"95.592","MEAN_MOTION":"15.06401569","OBJECT_NAME":"STARLINK-2083","GP_ID":"219479564","NORAD_CAT_ID":"47676","SITE":"AFETR","TLE_LINE1":"1 47676U 21012BJ  22337.74819406  .00000060  00000-0  22938-4 0  9996","RCS_SIZE":"LARGE","CLASSIFICATION_TYPE":"U","COUNTRY_CODE":"US","FILE":"3680595","TLE_LINE2":"2 47676  53.0552 252.4461 0001551  64.9843 295.1307 15.06401569102133","LAUNCH_DATE":"2021-02-16","BSTAR":"0.00002293800000","DECAY_DATE":null,"ECCENTRICITY":"0.00015510","APOAPSIS":"548.283","REV_AT_EPOCH":"10213"},{"ELEMENT_SET_NO":"999","MEAN_ANOMALY":"306.9118","EPHEMERIS_TYPE":"0","ARG_OF_PERICENTER":"53.2035","INCLINATION":"53.0566","TIME_SYSTEM":"UTC","OBJECT_ID":"2021-012BK","RA_OF_ASC_NODE":"23.0854","CENTER_NAME":"EARTH","SEMIMAJOR_AXIS":"6925.382","MEAN_MOTION_DDOT":"0.0000000000000","EPOCH":"2022-12-03T14:33:02.262816","OBJECT_TYPE":"PAYLOAD","MEAN_ELEMENT_THEORY":"SGP4","REF_FRAME":"TEME","PERIOD":"95.593","PERIAPSIS":"546.008","MEAN_MOTION_DOT":"0.00001008","OBJECT_NAME":"STARLINK-2090","MEAN_MOTION":"15.06389019","NORAD_CAT_ID":"47677","SITE":"AFETR","TLE_LINE1":"1 47677U 21012BK  22337.60627619  .00001008  00000-0  86566-4 0  9995","GP_ID":"219477818","FILE":"3680595","TLE_LINE2":"2 47677  53.0566  23.0854 0001789  53.2035 306.9118 15.06389019100307","LAUNCH_DATE":"2021-02-16","BSTAR":"0.00008656600000","DECAY_DATE":null,"ECCENTRICITY":"0.00017890","APOAPSIS":"548.486","REV_AT_EPOCH":"10030","CLASSIFICATION_TYPE":"U","RCS_SIZE":"LARGE","COUNTRY_CODE":"US"},{"MEAN_MOTION":"15.06394450","OBJECT_NAME":"STARLINK-2095","MEAN_MOTION_DOT":"0.00000148","PERIAPSIS":"546.091","REF_FRAME":"TEME","PERIOD":"95.592","RCS_SIZE":"LARGE","CLASSIFICATION_TYPE":"U","COUNTRY_CODE":"US","REV_AT_EPOCH":"10035","APOAPSIS":"548.370","FILE":"3680595","TLE_LINE2":"2 47679  53.0565  22.0774 0001645  61.1773 298.9381 15.06394450100358","LAUNCH_DATE":"2021-02-16","BSTAR":"0.00002885200000","ECCENTRICITY":"0.00016450","DECAY_DATE":null,"GP_ID":"219478563","TLE_LINE1":"1 47679U 21012BM  22337.83479936  .00000148  00000-0  28852-4 0  9997","NORAD_CAT_ID":"47679","SITE":"AFETR","EPHEMERIS_TYPE":"0","ARG_OF_PERICENTER":"61.1773","MEAN_ANOMALY":"298.9381","ELEMENT_SET_NO":"999","MEAN_ELEMENT_THEORY":"SGP4","MEAN_MOTION_DDOT":"0.0000000000000","OBJECT_TYPE":"PAYLOAD","EPOCH":"2022-12-03T20:02:06.664704","SEMIMAJOR_AXIS":"6925.366","CENTER_NAME":"EARTH","RA_OF_ASC_NODE":"22.0774","INCLINATION":"53.0565","OBJECT_ID":"2021-012BM","TIME_SYSTEM":"UTC"},{"MEAN_MOTION_DOT":"0.00000646","PERIAPSIS":"546.064","PERIOD":"95.592","REF_FRAME":"TEME","MEAN_MOTION":"15.06402463","OBJECT_NAME":"STARLINK-2068","GP_ID":"219478322","TLE_LINE1":"1 47722U 21017A   22337.74500324  .00000646  00000-0  62233-4 0  9991","SITE":"AFETR","NORAD_CAT_ID":"47722","COUNTRY_CODE":"US","RCS_SIZE":"LARGE","CLASSIFICATION_TYPE":"U","APOAPSIS":"548.348","REV_AT_EPOCH":"9833","ECCENTRICITY":"0.00016490","DECAY_DATE":null,"TLE_LINE2":"2 47722  53.0557 147.7049 0001649  69.1914 290.9251 15.06402463 98333","FILE":"3680595","BSTAR":"0.00006223300000","LAUNCH_DATE":"2021-03-04","MEAN_ANOMALY":"290.9251","ELEMENT_SET_NO":"999","EPHEMERIS_TYPE":"0","ARG_OF_PERICENTER":"69.1914","CENTER_NAME":"EARTH","SEMIMAJOR_AXIS":"6925.341","RA_OF_ASC_NODE":"147.7049","TIME_SYSTEM":"UTC","OBJECT_ID":"2021-017A","INCLINATION":"53.0557","MEAN_ELEMENT_THEORY":"SGP4","EPOCH":"2022-12-03T17:52:48.279936","OBJECT_TYPE":"PAYLOAD","MEAN_MOTION_DDOT":"0.0000000000000"},{"EPHEMERIS_TYPE":"0","ARG_OF_PERICENTER":"77.4311","MEAN_ANOMALY":"282.6833","ELEMENT_SET_NO":"999","MEAN_ELEMENT_THEORY":"SGP4","MEAN_MOTION_DDOT":"0.0000000000000","EPOCH":"2022-12-03T16:28:30.705600","OBJECT_TYPE":"PAYLOAD","CENTER_NAME":"EARTH","SEMIMAJOR_AXIS":"6925.382","RA_OF_ASC_NODE":"82.7414","INCLINATION":"53.0562","OBJECT_ID":"2021-017B","TIME_SYSTEM":"UTC","MEAN_MOTION":"15.06389070","OBJECT_NAME":"STARLINK-2107","MEAN_MOTION_DOT":"0.00000424","PERIAPSIS":"546.283","REF_FRAME":"TEME","PERIOD":"95.593","CLASSIFICATION_TYPE":"U","RCS_SIZE":"LARGE","COUNTRY_CODE":"US","APOAPSIS":"548.211","REV_AT_EPOCH":"9920","TLE_LINE2":"2 47723  53.0562  82.7414 0001392  77.4311 282.6833 15.06389070 99201","BSTAR":"0.00004740200000","FILE":"3680595","LAUNCH_DATE":"2021-03-04","DECAY_DATE":null,"ECCENTRICITY":"0.00013920","GP_ID":"219478069","TLE_LINE1":"1 47723U 21017B   22337.68646650  .00000424  00000-0  47402-4 0  9993","NORAD_CAT_ID":"47723","SITE":"AFETR"},{"MEAN_MOTION_DDOT":"0.0000000000000","EPOCH":"2022-12-03T17:21:35.408736","OBJECT_TYPE":"PAYLOAD","MEAN_ELEMENT_THEORY":"SGP4","RA_OF_ASC_NODE":"82.5765","INCLINATION":"53.0564","TIME_SYSTEM":"UTC","OBJECT_ID":"2021-017C","CENTER_NAME":"EARTH","SEMIMAJOR_AXIS":"6925.376","ARG_OF_PERICENTER":"54.9014","EPHEMERIS_TYPE":"0","ELEMENT_SET_NO":"999","MEAN_ANOMALY":"305.2145","REV_AT_EPOCH":"9917","APOAPSIS":"548.498","FILE":"3680595","TLE_LINE2":"2 47724  53.0564  82.5765 0001815  54.9014 305.2145 15.06391008 99179","BSTAR":"-0.00007322100000","LAUNCH_DATE":"2021-03-04","ECCENTRICITY":"0.00018150","DECAY_DATE":null,"RCS_SIZE":"LARGE","CLASSIFICATION_TYPE":"U","COUNTRY_CODE":"US","TLE_LINE1":"1 47724U 21017C   22337.72332649 -.00001372  00000-0 -73221-4 0  9992","NORAD_CAT_ID":"47724","SITE":"AFETR","GP_ID":"219479323","OBJECT_NAME":"STARLINK-2116","MEAN_MOTION":"15.06391008","REF_FRAME":"TEME","PERIOD":"95.593","MEAN_MOTION_DOT":"-0.00001372","PERIAPSIS":"545.984"},{"MEAN_MOTION":"15.06397633","OBJECT_NAME":"STARLINK-2125","PERIAPSIS":"545.974","MEAN_MOTION_DOT":"0.00001540","REF_FRAME":"TEME","PERIOD":"95.592","RCS_SIZE":"LARGE","CLASSIFICATION_TYPE":"U","COUNTRY_CODE":"US","TLE_LINE2":"2 47725  53.0534 152.4147 0001800  68.3219 291.7961 15.06397633 98217","LAUNCH_DATE":"2021-03-04","FILE":"3680595","BSTAR":"0.00012230000000","ECCENTRICITY":"0.00018000","DECAY_DATE":null,"APOAPSIS":"548.467","REV_AT_EPOCH":"9821","GP_ID":"219479569","NORAD_CAT_ID":"47725","SITE":"AFETR","TLE_LINE1":"1 47725U 21017D   22337.75742613  .00001540  00000-0  12230-3 0  9999","ARG_OF_PERICENTER":"68.3219","EPHEMERIS_TYPE":"0","MEAN_ANOMALY":"291.7961","ELEMENT_SET_NO":"999","MEAN_ELEMENT_THEORY":"SGP4","MEAN_MOTION_DDOT":"0.0000000000000","EPOCH":"2022-12-03T18:10:41.617632","OBJECT_TYPE":"PAYLOAD","SEMIMAJOR_AXIS":"6925.356","CENTER_NAME":"EARTH","INCLINATION":"53.0534","TIME_SYSTEM":"UTC","OBJECT_ID":"2021-017D","RA_OF_ASC_NODE":"152.4147"},{"MEAN_ANOMALY":"292.3136","ELEMENT_SET_NO":"999","ARG_OF_PERICENTER":"67.8091","EPHEMERIS_TYPE":"0","SEMIMAJOR_AXIS":"6925.318","CENTER_NAME":"EARTH","RA_OF_ASC_NODE":"151.8919","INCLINATION":"53.0561","OBJECT_ID":"2021-017E","TIME_SYSTEM":"UTC","MEAN_ELEMENT_THEORY":"SGP4","MEAN_MOTION_DDOT":"0.0000000000000","EPOCH":"2022-12-03T21:00:31.760640","OBJECT_TYPE":"PAYLOAD","MEAN_MOTION_DOT":"0.00001473","PERIAPSIS":"545.631","REF_FRAME":"TEME","PERIOD":"95.592","MEAN_MOTION":"15.06409886","OBJECT_NAME":"STARLINK-2126","GP_ID":"219477823","TLE_LINE1":"1 47726U 21017E   22337.87536760  .00001473  00000-0  11772-3 0  9992","NORAD_CAT_ID":"47726","SITE":"AFETR","CLASSIFICATION_TYPE":"U","RCS_SIZE":"MEDIUM","COUNTRY_CODE":"US","APOAPSIS":"548.736","REV_AT_EPOCH":"9822","LAUNCH_DATE":"2021-03-04","TLE_LINE2":"2 47726  53.0561 151.8919 0002242  67.8091 292.3136 15.06409886 98227","FILE":"3680595","BSTAR":"0.00011772000000","DECAY_DATE":null,"ECCENTRICITY":"0.00022420"},{"MEAN_ANOMALY":"306.8044","ELEMENT_SET_NO":"999","EPHEMERIS_TYPE":"0","ARG_OF_PERICENTER":"53.3100","SEMIMAJOR_AXIS":"6925.362","CENTER_NAME":"EARTH","RA_OF_ASC_NODE":"72.7067","INCLINATION":"53.0551","TIME_SYSTEM":"UTC","OBJECT_ID":"2021-017F","MEAN_ELEMENT_THEORY":"SGP4","MEAN_MOTION_DDOT":"0.0000000000000","OBJECT_TYPE":"PAYLOAD","EPOCH":"2022-12-03T16:39:04.937760","MEAN_MOTION_DOT":"-0.00001113","PERIAPSIS":"546.063","REF_FRAME":"TEME","PERIOD":"95.592","MEAN_MOTION":"15.06395673","OBJECT_NAME":"STARLINK-2129","GP_ID":"219478568","TLE_LINE1":"1 47727U 21017F   22337.69380715 -.00001113  00000-0 -55824-4 0  9990","NORAD_CAT_ID":"47727","SITE":"AFETR","RCS_SIZE":"LARGE","CLASSIFICATION_TYPE":"U","COUNTRY_CODE":"US","REV_AT_EPOCH":"9935","APOAPSIS":"548.391","BSTAR":"-0.00005582400000","TLE_LINE2":"2 47727  53.0551  72.7067 0001681  53.3100 306.8044 15.06395673 99351","FILE":"3680595","LAUNCH_DATE":"2021-03-04","ECCENTRICITY":"0.00016810","DECAY_DATE":null}];
